ONEWEB-0080             
1 45426U 20020C   25360.22855452  .00000623  00000+0  17210-2 0  9997
2 45426  87.8841  55.5034 0001739  89.8629 270.2698 13.11415353280037
ONEWEB-0090             
1 45427U 20020D   25360.17173601 -.00000042  00000+0 -15473-3 0  9998
2 45427  87.8845  55.5165 0001742 100.3168 259.8157 13.11413670279994
ONEWEB-0061             
1 45428U 20020E   25360.20381310 -.00000077  00000+0 -25299-3 0  9996
2 45428  87.8852  55.4916 0001794 100.6939 259.4391 13.11417531279954
ONEWEB-0081             
1 45429U 20020F   25360.18530483 -.00000496  00000+0 -14367-2 0  9999
2 45429  87.8851  55.5119 0001994  99.4374 260.6979 13.11417086280065
ONEWEB-0069             
1 45430U 20020G   25360.17428384 -.00000177  00000+0 -53598-3 0  9992
2 45430  87.8847  55.5098 0001873 100.7373 259.3966 13.11415117279993
ONEWEB-0031             
1 45431U 20020H   25360.22261650  .00000547  00000+0  15066-2 0  9996
2 45431  87.8843  55.5232 0001608  97.2963 262.8348 13.11416568279984
ONEWEB-0027             
1 45432U 20020J   25360.17140461  .00000099  00000+0  22269-3 0  9993
2 45432  87.9105  40.2388 0001411 103.1954 256.9335 13.17648018283572
ONEWEB-0064             
1 45433U 20020K   25360.22092193  .00000486  00000+0  13367-2 0  9996
2 45433  87.8844  55.5135 0001602 100.0816 260.0493 13.11416608280015
